{
"type": "FeatureCollection",
"name": "pol",
"crs": { "type": "name", "properties": { "name": "urn:ogc:def:crs:EPSG::32720" } },
"features": [
{ "type": "Feature", "properties": { "fid": 1, "zonas": 1 }, "geometry": { "type": "Polygon", "coordinates": [ [ [ 329160.0, 7154360.0 ], [ 329160.0, 7154350.0 ], [ 329170.0, 7154350.0 ], [ 329170.0, 7154360.0 ], [ 329160.0, 7154360.0 ] ] ] } },
{ "type": "Feature", "properties": { "fid": 2, "zonas": 1 }, "geometry": { "type": "Polygon", "coordinates": [ [ [ 329180.0, 7154360.0 ], [ 329180.0, 7154350.0 ], [ 329190.0, 7154350.0 ], [ 329190.0, 7154340.0 ], [ 329250.0, 7154340.0 ], [ 329250.0, 7154350.0 ], [ 329200.0, 7154350.0 ], [ 329200.0, 7154360.0 ], [ 329180.0, 7154360.0 ] ] ] } },
{ "type": "Feature", "properties": { "fid": 3, "zonas": 1 }, "geometry": { "type": "Polygon", "coordinates": [ [ [ 329270.0, 7154340.0 ], [ 329270.0, 7154330.0 ], [ 329300.0, 7154330.0 ], [ 329300.0, 7154340.0 ], [ 329270.0, 7154340.0 ] ] ] } },
{ "type": "Feature", "properties": { "fid": 4, "zonas": 3 }, "geometry": { "type": "Polygon", "coordinates": [ [ [ 329170.0, 7154360.0 ], [ 329170.0, 7154350.0 ], [ 329160.0, 7154350.0 ], [ 329160.0, 7154340.0 ], [ 329170.0, 7154340.0 ], [ 329170.0, 7154330.0 ], [ 329200.0, 7154330.0 ], [ 329200.0, 7154320.0 ], [ 329260.0, 7154320.0 ], [ 329260.0, 7154310.0 ], [ 329290.0, 7154310.0 ], [ 329290.0, 7154320.0 ], [ 329350.0, 7154320.0 ], [ 329350.0, 7154330.0 ], [ 329270.0, 7154330.0 ], [ 329270.0, 7154340.0 ], [ 329190.0, 7154340.0 ], [ 329190.0, 7154350.0 ], [ 329180.0, 7154350.0 ], [ 329180.0, 7154360.0 ], [ 329170.0, 7154360.0 ] ] ] } },
{ "type": "Feature", "properties": { "fid": 5, "zonas": 1 }, "geometry": { "type": "Polygon", "coordinates": [ [ [ 329430.0, 7154310.0 ], [ 329430.0, 7154300.0 ], [ 329440.0, 7154300.0 ], [ 329440.0, 7154310.0 ], [ 329430.0, 7154310.0 ] ] ] } },
{ "type": "Feature", "properties": { "fid": 6, "zonas": 3 }, "geometry": { "type": "Polygon", "coordinates": [ [ [ 329120.0, 7154360.0 ], [ 329120.0, 7154350.0 ], [ 329110.0, 7154350.0 ], [ 329110.0, 7154340.0 ], [ 329100.0, 7154340.0 ], [ 329100.0, 7154330.0 ], [ 329090.0, 7154330.0 ], [ 329090.0, 7154290.0 ], [ 329100.0, 7154290.0 ], [ 329100.0, 7154320.0 ], [ 329110.0, 7154320.0 ], [ 329110.0, 7154330.0 ], [ 329120.0, 7154330.0 ], [ 329120.0, 7154340.0 ], [ 329130.0, 7154340.0 ], [ 329130.0, 7154350.0 ], [ 329160.0, 7154350.0 ], [ 329160.0, 7154360.0 ], [ 329120.0, 7154360.0 ] ] ] } },
{ "type": "Feature", "properties": { "fid": 7, "zonas": 3 }, "geometry": { "type": "Polygon", "coordinates": [ [ [ 329350.0, 7154320.0 ], [ 329350.0, 7154310.0 ], [ 329360.0, 7154310.0 ], [ 329360.0, 7154300.0 ], [ 329370.0, 7154300.0 ], [ 329370.0, 7154290.0 ], [ 329400.0, 7154290.0 ], [ 329400.0, 7154280.0 ], [ 329420.0, 7154280.0 ], [ 329420.0, 7154270.0 ], [ 329450.0, 7154270.0 ], [ 329450.0, 7154290.0 ], [ 329440.0, 7154290.0 ], [ 329440.0, 7154300.0 ], [ 329430.0, 7154300.0 ], [ 329430.0, 7154310.0 ], [ 329390.0, 7154310.0 ], [ 329390.0, 7154320.0 ], [ 329350.0, 7154320.0 ] ] ] } },
{ "type": "Feature", "properties": { "fid": 8, "zonas": 3 }, "geometry": { "type": "Polygon", "coordinates": [ [ [ 329190.0, 7154220.0 ], [ 329190.0, 7154200.0 ], [ 329200.0, 7154200.0 ], [ 329200.0, 7154220.0 ], [ 329190.0, 7154220.0 ] ] ] } },
{ "type": "Feature", "properties": { "fid": 9, "zonas": 3 }, "geometry": { "type": "Polygon", "coordinates": [ [ [ 329080.0, 7154260.0 ], [ 329080.0, 7154190.0 ], [ 329090.0, 7154190.0 ], [ 329090.0, 7154260.0 ], [ 329080.0, 7154260.0 ] ] ] } },
{ "type": "Feature", "properties": { "fid": 10, "zonas": 3 }, "geometry": { "type": "Polygon", "coordinates": [ [ [ 329070.0, 7154190.0 ], [ 329070.0, 7154170.0 ], [ 329080.0, 7154170.0 ], [ 329080.0, 7154190.0 ], [ 329070.0, 7154190.0 ] ] ] } },
{ "type": "Feature", "properties": { "fid": 11, "zonas": 3 }, "geometry": { "type": "Polygon", "coordinates": [ [ [ 329040.0, 7154050.0 ], [ 329040.0, 7154040.0 ], [ 329050.0, 7154040.0 ], [ 329050.0, 7154050.0 ], [ 329040.0, 7154050.0 ] ] ] } },
{ "type": "Feature", "properties": { "fid": 12, "zonas": 3 }, "geometry": { "type": "Polygon", "coordinates": [ [ [ 329270.0, 7154040.0 ], [ 329270.0, 7154030.0 ], [ 329260.0, 7154030.0 ], [ 329260.0, 7153990.0 ], [ 329270.0, 7153990.0 ], [ 329270.0, 7154000.0 ], [ 329280.0, 7154000.0 ], [ 329280.0, 7154040.0 ], [ 329270.0, 7154040.0 ] ] ] } },
{ "type": "Feature", "properties": { "fid": 13, "zonas": 1 }, "geometry": { "type": "Polygon", "coordinates": [ [ [ 329090.0, 7154370.0 ], [ 329090.0, 7154340.0 ], [ 329080.0, 7154340.0 ], [ 329080.0, 7154280.0 ], [ 329070.0, 7154280.0 ], [ 329070.0, 7154230.0 ], [ 329060.0, 7154230.0 ], [ 329060.0, 7154170.0 ], [ 329050.0, 7154170.0 ], [ 329050.0, 7154120.0 ], [ 329040.0, 7154120.0 ], [ 329040.0, 7154060.0 ], [ 329030.0, 7154060.0 ], [ 329030.0, 7154000.0 ], [ 329020.0, 7154000.0 ], [ 329020.0, 7153960.0 ], [ 329030.0, 7153960.0 ], [ 329030.0, 7153980.0 ], [ 329040.0, 7153980.0 ], [ 329040.0, 7154050.0 ], [ 329050.0, 7154050.0 ], [ 329050.0, 7154080.0 ], [ 329060.0, 7154080.0 ], [ 329060.0, 7154150.0 ], [ 329070.0, 7154150.0 ], [ 329070.0, 7154190.0 ], [ 329080.0, 7154190.0 ], [ 329080.0, 7154260.0 ], [ 329090.0, 7154260.0 ], [ 329090.0, 7154330.0 ], [ 329100.0, 7154330.0 ], [ 329100.0, 7154340.0 ], [ 329110.0, 7154340.0 ], [ 329110.0, 7154350.0 ], [ 329120.0, 7154350.0 ], [ 329120.0, 7154360.0 ], [ 329160.0, 7154360.0 ], [ 329160.0, 7154370.0 ], [ 329090.0, 7154370.0 ] ] ] } },
{ "type": "Feature", "properties": { "fid": 14, "zonas": 3 }, "geometry": { "type": "Polygon", "coordinates": [ [ [ 329020.0, 7153950.0 ], [ 329020.0, 7153930.0 ], [ 329030.0, 7153930.0 ], [ 329030.0, 7153950.0 ], [ 329020.0, 7153950.0 ] ] ] } },
{ "type": "Feature", "properties": { "fid": 15, "zonas": 1 }, "geometry": { "type": "Polygon", "coordinates": [ [ [ 329010.0, 7153950.0 ], [ 329010.0, 7153900.0 ], [ 329020.0, 7153900.0 ], [ 329020.0, 7153950.0 ], [ 329010.0, 7153950.0 ] ] ] } },
{ "type": "Feature", "properties": { "fid": 16, "zonas": 3 }, "geometry": { "type": "Polygon", "coordinates": [ [ [ 329010.0, 7153890.0 ], [ 329010.0, 7153870.0 ], [ 329020.0, 7153870.0 ], [ 329020.0, 7153890.0 ], [ 329010.0, 7153890.0 ] ] ] } },
{ "type": "Feature", "properties": { "fid": 17, "zonas": 3 }, "geometry": { "type": "Polygon", "coordinates": [ [ [ 329240.0, 7153860.0 ], [ 329240.0, 7153850.0 ], [ 329250.0, 7153850.0 ], [ 329250.0, 7153860.0 ], [ 329240.0, 7153860.0 ] ] ] } },
{ "type": "Feature", "properties": { "fid": 18, "zonas": 1 }, "geometry": { "type": "Polygon", "coordinates": [ [ [ 329000.0, 7153890.0 ], [ 329000.0, 7153840.0 ], [ 329010.0, 7153840.0 ], [ 329010.0, 7153890.0 ], [ 329000.0, 7153890.0 ] ] ] } },
{ "type": "Feature", "properties": { "fid": 19, "zonas": 3 }, "geometry": { "type": "Polygon", "coordinates": [ [ [ 329430.0, 7154200.0 ], [ 329430.0, 7154190.0 ], [ 329410.0, 7154190.0 ], [ 329410.0, 7154170.0 ], [ 329400.0, 7154170.0 ], [ 329400.0, 7154140.0 ], [ 329390.0, 7154140.0 ], [ 329390.0, 7154130.0 ], [ 329380.0, 7154130.0 ], [ 329380.0, 7154110.0 ], [ 329390.0, 7154110.0 ], [ 329390.0, 7154090.0 ], [ 329380.0, 7154090.0 ], [ 329380.0, 7154080.0 ], [ 329370.0, 7154080.0 ], [ 329370.0, 7154060.0 ], [ 329380.0, 7154060.0 ], [ 329380.0, 7154030.0 ], [ 329370.0, 7154030.0 ], [ 329370.0, 7154000.0 ], [ 329360.0, 7154000.0 ], [ 329360.0, 7153940.0 ], [ 329350.0, 7153940.0 ], [ 329350.0, 7153930.0 ], [ 329330.0, 7153930.0 ], [ 329330.0, 7153920.0 ], [ 329320.0, 7153920.0 ], [ 329320.0, 7153910.0 ], [ 329310.0, 7153910.0 ], [ 329310.0, 7153880.0 ], [ 329320.0, 7153880.0 ], [ 329320.0, 7153870.0 ], [ 329370.0, 7153870.0 ], [ 329370.0, 7153820.0 ], [ 329380.0, 7153820.0 ], [ 329380.0, 7153870.0 ], [ 329390.0, 7153870.0 ], [ 329390.0, 7153910.0 ], [ 329400.0, 7153910.0 ], [ 329400.0, 7153950.0 ], [ 329410.0, 7153950.0 ], [ 329410.0, 7154040.0 ], [ 329420.0, 7154040.0 ], [ 329420.0, 7154100.0 ], [ 329430.0, 7154100.0 ], [ 329430.0, 7154150.0 ], [ 329440.0, 7154150.0 ], [ 329440.0, 7154200.0 ], [ 329430.0, 7154200.0 ] ] ] } },
{ "type": "Feature", "properties": { "fid": 20, "zonas": 3 }, "geometry": { "type": "Polygon", "coordinates": [ [ [ 329360.0, 7153810.0 ], [ 329360.0, 7153770.0 ], [ 329370.0, 7153770.0 ], [ 329370.0, 7153810.0 ], [ 329360.0, 7153810.0 ] ] ] } },
{ "type": "Feature", "properties": { "fid": 21, "zonas": 3 }, "geometry": { "type": "Polygon", "coordinates": [ [ [ 328990.0, 7153770.0 ], [ 328990.0, 7153740.0 ], [ 329000.0, 7153740.0 ], [ 329000.0, 7153770.0 ], [ 328990.0, 7153770.0 ] ] ] } },
{ "type": "Feature", "properties": { "fid": 22, "zonas": 3 }, "geometry": { "type": "Polygon", "coordinates": [ [ [ 329110.0, 7153770.0 ], [ 329110.0, 7153750.0 ], [ 329120.0, 7153750.0 ], [ 329120.0, 7153740.0 ], [ 329130.0, 7153740.0 ], [ 329130.0, 7153770.0 ], [ 329110.0, 7153770.0 ] ] ] } },
{ "type": "Feature", "properties": { "fid": 23, "zonas": 3 }, "geometry": { "type": "Polygon", "coordinates": [ [ [ 329300.0, 7153750.0 ], [ 329300.0, 7153730.0 ], [ 329320.0, 7153730.0 ], [ 329320.0, 7153750.0 ], [ 329300.0, 7153750.0 ] ] ] } },
{ "type": "Feature", "properties": { "fid": 24, "zonas": 3 }, "geometry": { "type": "Polygon", "coordinates": [ [ [ 329350.0, 7153730.0 ], [ 329350.0, 7153720.0 ], [ 329360.0, 7153720.0 ], [ 329360.0, 7153730.0 ], [ 329350.0, 7153730.0 ] ] ] } },
{ "type": "Feature", "properties": { "fid": 25, "zonas": 3 }, "geometry": { "type": "Polygon", "coordinates": [ [ [ 328980.0, 7153710.0 ], [ 328980.0, 7153700.0 ], [ 328990.0, 7153700.0 ], [ 328990.0, 7153710.0 ], [ 328980.0, 7153710.0 ] ] ] } },
{ "type": "Feature", "properties": { "fid": 26, "zonas": 3 }, "geometry": { "type": "Polygon", "coordinates": [ [ [ 328970.0, 7153650.0 ], [ 328970.0, 7153600.0 ], [ 328980.0, 7153600.0 ], [ 328980.0, 7153650.0 ], [ 328970.0, 7153650.0 ] ] ] } },
{ "type": "Feature", "properties": { "fid": 27, "zonas": 3 }, "geometry": { "type": "Polygon", "coordinates": [ [ [ 328960.0, 7153600.0 ], [ 328960.0, 7153550.0 ], [ 328970.0, 7153550.0 ], [ 328970.0, 7153600.0 ], [ 328960.0, 7153600.0 ] ] ] } },
{ "type": "Feature", "properties": { "fid": 28, "zonas": 3 }, "geometry": { "type": "Polygon", "coordinates": [ [ [ 329120.0, 7153730.0 ], [ 329120.0, 7153720.0 ], [ 329110.0, 7153720.0 ], [ 329110.0, 7153710.0 ], [ 329100.0, 7153710.0 ], [ 329100.0, 7153700.0 ], [ 329080.0, 7153700.0 ], [ 329080.0, 7153690.0 ], [ 329070.0, 7153690.0 ], [ 329070.0, 7153640.0 ], [ 329080.0, 7153640.0 ], [ 329080.0, 7153630.0 ], [ 329090.0, 7153630.0 ], [ 329090.0, 7153580.0 ], [ 329100.0, 7153580.0 ], [ 329100.0, 7153570.0 ], [ 329130.0, 7153570.0 ], [ 329130.0, 7153560.0 ], [ 329140.0, 7153560.0 ], [ 329140.0, 7153530.0 ], [ 329160.0, 7153530.0 ], [ 329160.0, 7153570.0 ], [ 329140.0, 7153570.0 ], [ 329140.0, 7153580.0 ], [ 329130.0, 7153580.0 ], [ 329130.0, 7153610.0 ], [ 329140.0, 7153610.0 ], [ 329140.0, 7153630.0 ], [ 329150.0, 7153630.0 ], [ 329150.0, 7153640.0 ], [ 329160.0, 7153640.0 ], [ 329160.0, 7153650.0 ], [ 329150.0, 7153650.0 ], [ 329150.0, 7153670.0 ], [ 329140.0, 7153670.0 ], [ 329140.0, 7153720.0 ], [ 329130.0, 7153720.0 ], [ 329130.0, 7153730.0 ], [ 329120.0, 7153730.0 ] ] ] } },
{ "type": "Feature", "properties": { "fid": 29, "zonas": 3 }, "geometry": { "type": "Polygon", "coordinates": [ [ [ 329090.0, 7153500.0 ], [ 329090.0, 7153490.0 ], [ 329080.0, 7153490.0 ], [ 329080.0, 7153480.0 ], [ 329070.0, 7153480.0 ], [ 329070.0, 7153470.0 ], [ 329060.0, 7153470.0 ], [ 329060.0, 7153450.0 ], [ 329070.0, 7153450.0 ], [ 329070.0, 7153440.0 ], [ 329080.0, 7153440.0 ], [ 329080.0, 7153450.0 ], [ 329090.0, 7153450.0 ], [ 329090.0, 7153470.0 ], [ 329100.0, 7153470.0 ], [ 329100.0, 7153500.0 ], [ 329090.0, 7153500.0 ] ] ] } },
{ "type": "Feature", "properties": { "fid": 30, "zonas": 3 }, "geometry": { "type": "Polygon", "coordinates": [ [ [ 329130.0, 7153470.0 ], [ 329130.0, 7153460.0 ], [ 329120.0, 7153460.0 ], [ 329120.0, 7153440.0 ], [ 329140.0, 7153440.0 ], [ 329140.0, 7153450.0 ], [ 329150.0, 7153450.0 ], [ 329150.0, 7153460.0 ], [ 329140.0, 7153460.0 ], [ 329140.0, 7153470.0 ], [ 329130.0, 7153470.0 ] ] ] } },
{ "type": "Feature", "properties": { "fid": 31, "zonas": 2 }, "geometry": { "type": "Polygon", "coordinates": [ [ [ 328950.0, 7153420.0 ], [ 328950.0, 7153400.0 ], [ 328960.0, 7153400.0 ], [ 328960.0, 7153420.0 ], [ 328950.0, 7153420.0 ] ] ] } },
{ "type": "Feature", "properties": { "fid": 32, "zonas": 1 }, "geometry": { "type": "Polygon", "coordinates": [ [ [ 328990.0, 7153840.0 ], [ 328990.0, 7153780.0 ], [ 328980.0, 7153780.0 ], [ 328980.0, 7153730.0 ], [ 328970.0, 7153730.0 ], [ 328970.0, 7153670.0 ], [ 328960.0, 7153670.0 ], [ 328960.0, 7153620.0 ], [ 328950.0, 7153620.0 ], [ 328950.0, 7153560.0 ], [ 328940.0, 7153560.0 ], [ 328940.0, 7153500.0 ], [ 328930.0, 7153500.0 ], [ 328930.0, 7153450.0 ], [ 328920.0, 7153450.0 ], [ 328920.0, 7153390.0 ], [ 328930.0, 7153390.0 ], [ 328930.0, 7153400.0 ], [ 328940.0, 7153400.0 ], [ 328940.0, 7153490.0 ], [ 328950.0, 7153490.0 ], [ 328950.0, 7153520.0 ], [ 328960.0, 7153520.0 ], [ 328960.0, 7153600.0 ], [ 328970.0, 7153600.0 ], [ 328970.0, 7153650.0 ], [ 328980.0, 7153650.0 ], [ 328980.0, 7153710.0 ], [ 328990.0, 7153710.0 ], [ 328990.0, 7153770.0 ], [ 329000.0, 7153770.0 ], [ 329000.0, 7153840.0 ], [ 328990.0, 7153840.0 ] ] ] } },
{ "type": "Feature", "properties": { "fid": 33, "zonas": 2 }, "geometry": { "type": "Polygon", "coordinates": [ [ [ 329170.0, 7153360.0 ], [ 329170.0, 7153350.0 ], [ 329160.0, 7153350.0 ], [ 329160.0, 7153340.0 ], [ 329150.0, 7153340.0 ], [ 329150.0, 7153290.0 ], [ 329160.0, 7153290.0 ], [ 329160.0, 7153300.0 ], [ 329170.0, 7153300.0 ], [ 329170.0, 7153320.0 ], [ 329180.0, 7153320.0 ], [ 329180.0, 7153360.0 ], [ 329170.0, 7153360.0 ] ] ] } },
{ "type": "Feature", "properties": { "fid": 34, "zonas": 3 }, "geometry": { "type": "Polygon", "coordinates": [ [ [ 328910.0, 7153300.0 ], [ 328910.0, 7153290.0 ], [ 328920.0, 7153290.0 ], [ 328920.0, 7153300.0 ], [ 328910.0, 7153300.0 ] ] ] } },
{ "type": "Feature", "properties": { "fid": 35, "zonas": 2 }, "geometry": { "type": "Polygon", "coordinates": [ [ [ 329130.0, 7154350.0 ], [ 329130.0, 7154340.0 ], [ 329120.0, 7154340.0 ], [ 329120.0, 7154330.0 ], [ 329110.0, 7154330.0 ], [ 329110.0, 7154320.0 ], [ 329100.0, 7154320.0 ], [ 329100.0, 7154290.0 ], [ 329090.0, 7154290.0 ], [ 329090.0, 7154190.0 ], [ 329080.0, 7154190.0 ], [ 329080.0, 7154170.0 ], [ 329070.0, 7154170.0 ], [ 329070.0, 7154150.0 ], [ 329060.0, 7154150.0 ], [ 329060.0, 7154080.0 ], [ 329050.0, 7154080.0 ], [ 329050.0, 7154040.0 ], [ 329040.0, 7154040.0 ], [ 329040.0, 7153980.0 ], [ 329030.0, 7153980.0 ], [ 329030.0, 7153960.0 ], [ 329020.0, 7153960.0 ], [ 329020.0, 7153950.0 ], [ 329030.0, 7153950.0 ], [ 329030.0, 7153930.0 ], [ 329020.0, 7153930.0 ], [ 329020.0, 7153900.0 ], [ 329010.0, 7153900.0 ], [ 329010.0, 7153890.0 ], [ 329020.0, 7153890.0 ], [ 329020.0, 7153870.0 ], [ 329010.0, 7153870.0 ], [ 329010.0, 7153840.0 ], [ 329000.0, 7153840.0 ], [ 329000.0, 7153740.0 ], [ 328990.0, 7153740.0 ], [ 328990.0, 7153700.0 ], [ 328980.0, 7153700.0 ], [ 328980.0, 7153600.0 ], [ 328970.0, 7153600.0 ], [ 328970.0, 7153550.0 ], [ 328960.0, 7153550.0 ], [ 328960.0, 7153470.0 ], [ 328950.0, 7153470.0 ], [ 328950.0, 7153430.0 ], [ 328960.0, 7153430.0 ], [ 328960.0, 7153450.0 ], [ 328970.0, 7153450.0 ], [ 328970.0, 7153460.0 ], [ 328980.0, 7153460.0 ], [ 328980.0, 7153470.0 ], [ 329000.0, 7153470.0 ], [ 329000.0, 7153450.0 ], [ 329010.0, 7153450.0 ], [ 329010.0, 7153440.0 ], [ 329020.0, 7153440.0 ], [ 329020.0, 7153430.0 ], [ 329010.0, 7153430.0 ], [ 329010.0, 7153420.0 ], [ 329020.0, 7153420.0 ], [ 329020.0, 7153410.0 ], [ 329030.0, 7153410.0 ], [ 329030.0, 7153400.0 ], [ 329040.0, 7153400.0 ], [ 329040.0, 7153410.0 ], [ 329060.0, 7153410.0 ], [ 329060.0, 7153440.0 ], [ 329070.0, 7153440.0 ], [ 329070.0, 7153420.0 ], [ 329080.0, 7153420.0 ], [ 329080.0, 7153360.0 ], [ 329070.0, 7153360.0 ], [ 329070.0, 7153310.0 ], [ 329080.0, 7153310.0 ], [ 329080.0, 7153320.0 ], [ 329090.0, 7153320.0 ], [ 329090.0, 7153330.0 ], [ 329100.0, 7153330.0 ], [ 329100.0, 7153310.0 ], [ 329110.0, 7153310.0 ], [ 329110.0, 7153290.0 ], [ 329100.0, 7153290.0 ], [ 329100.0, 7153270.0 ], [ 329120.0, 7153270.0 ], [ 329120.0, 7153310.0 ], [ 329130.0, 7153310.0 ], [ 329130.0, 7153320.0 ], [ 329140.0, 7153320.0 ], [ 329140.0, 7153380.0 ], [ 329150.0, 7153380.0 ], [ 329150.0, 7153430.0 ], [ 329160.0, 7153430.0 ], [ 329160.0, 7153460.0 ], [ 329170.0, 7153460.0 ], [ 329170.0, 7153510.0 ], [ 329180.0, 7153510.0 ], [ 329180.0, 7153530.0 ], [ 329190.0, 7153530.0 ], [ 329190.0, 7153520.0 ], [ 329200.0, 7153520.0 ], [ 329200.0, 7153470.0 ], [ 329260.0, 7153470.0 ], [ 329260.0, 7153480.0 ], [ 329270.0, 7153480.0 ], [ 329270.0, 7153510.0 ], [ 329280.0, 7153510.0 ], [ 329280.0, 7153550.0 ], [ 329290.0, 7153550.0 ], [ 329290.0, 7153570.0 ], [ 329300.0, 7153570.0 ], [ 329300.0, 7153600.0 ], [ 329310.0, 7153600.0 ], [ 329310.0, 7153630.0 ], [ 329320.0, 7153630.0 ], [ 329320.0, 7153640.0 ], [ 329330.0, 7153640.0 ], [ 329330.0, 7153650.0 ], [ 329340.0, 7153650.0 ], [ 329340.0, 7153670.0 ], [ 329350.0, 7153670.0 ], [ 329350.0, 7153730.0 ], [ 329360.0, 7153730.0 ], [ 329360.0, 7153810.0 ], [ 329370.0, 7153810.0 ], [ 329370.0, 7153870.0 ], [ 329320.0, 7153870.0 ], [ 329320.0, 7153880.0 ], [ 329310.0, 7153880.0 ], [ 329310.0, 7153910.0 ], [ 329320.0, 7153910.0 ], [ 329320.0, 7153920.0 ], [ 329330.0, 7153920.0 ], [ 329330.0, 7153930.0 ], [ 329350.0, 7153930.0 ], [ 329350.0, 7153940.0 ], [ 329360.0, 7153940.0 ], [ 329360.0, 7154000.0 ], [ 329370.0, 7154000.0 ], [ 329370.0, 7154030.0 ], [ 329380.0, 7154030.0 ], [ 329380.0, 7154060.0 ], [ 329370.0, 7154060.0 ], [ 329370.0, 7154080.0 ], [ 329380.0, 7154080.0 ], [ 329380.0, 7154090.0 ], [ 329390.0, 7154090.0 ], [ 329390.0, 7154110.0 ], [ 329380.0, 7154110.0 ], [ 329380.0, 7154130.0 ], [ 329390.0, 7154130.0 ], [ 329390.0, 7154140.0 ], [ 329400.0, 7154140.0 ], [ 329400.0, 7154170.0 ], [ 329410.0, 7154170.0 ], [ 329410.0, 7154190.0 ], [ 329430.0, 7154190.0 ], [ 329430.0, 7154200.0 ], [ 329450.0, 7154200.0 ], [ 329450.0, 7154230.0 ], [ 329460.0, 7154230.0 ], [ 329460.0, 7154260.0 ], [ 329450.0, 7154260.0 ], [ 329450.0, 7154270.0 ], [ 329420.0, 7154270.0 ], [ 329420.0, 7154280.0 ], [ 329400.0, 7154280.0 ], [ 329400.0, 7154290.0 ], [ 329370.0, 7154290.0 ], [ 329370.0, 7154300.0 ], [ 329360.0, 7154300.0 ], [ 329360.0, 7154310.0 ], [ 329350.0, 7154310.0 ], [ 329350.0, 7154320.0 ], [ 329290.0, 7154320.0 ], [ 329290.0, 7154310.0 ], [ 329260.0, 7154310.0 ], [ 329260.0, 7154320.0 ], [ 329200.0, 7154320.0 ], [ 329200.0, 7154330.0 ], [ 329170.0, 7154330.0 ], [ 329170.0, 7154340.0 ], [ 329160.0, 7154340.0 ], [ 329160.0, 7154350.0 ], [ 329130.0, 7154350.0 ] ], [ [ 329190.0, 7154220.0 ], [ 329200.0, 7154220.0 ], [ 329200.0, 7154200.0 ], [ 329190.0, 7154200.0 ], [ 329190.0, 7154220.0 ] ], [ [ 329270.0, 7154040.0 ], [ 329280.0, 7154040.0 ], [ 329280.0, 7154000.0 ], [ 329270.0, 7154000.0 ], [ 329270.0, 7153990.0 ], [ 329260.0, 7153990.0 ], [ 329260.0, 7154030.0 ], [ 329270.0, 7154030.0 ], [ 329270.0, 7154040.0 ] ], [ [ 329240.0, 7153860.0 ], [ 329250.0, 7153860.0 ], [ 329250.0, 7153850.0 ], [ 329240.0, 7153850.0 ], [ 329240.0, 7153860.0 ] ], [ [ 329110.0, 7153770.0 ], [ 329130.0, 7153770.0 ], [ 329130.0, 7153740.0 ], [ 329120.0, 7153740.0 ], [ 329120.0, 7153750.0 ], [ 329110.0, 7153750.0 ], [ 329110.0, 7153770.0 ] ], [ [ 329300.0, 7153750.0 ], [ 329320.0, 7153750.0 ], [ 329320.0, 7153730.0 ], [ 329300.0, 7153730.0 ], [ 329300.0, 7153750.0 ] ], [ [ 329120.0, 7153730.0 ], [ 329130.0, 7153730.0 ], [ 329130.0, 7153720.0 ], [ 329140.0, 7153720.0 ], [ 329140.0, 7153670.0 ], [ 329150.0, 7153670.0 ], [ 329150.0, 7153650.0 ], [ 329160.0, 7153650.0 ], [ 329160.0, 7153640.0 ], [ 329150.0, 7153640.0 ], [ 329150.0, 7153630.0 ], [ 329140.0, 7153630.0 ], [ 329140.0, 7153610.0 ], [ 329130.0, 7153610.0 ], [ 329130.0, 7153580.0 ], [ 329140.0, 7153580.0 ], [ 329140.0, 7153570.0 ], [ 329160.0, 7153570.0 ], [ 329160.0, 7153530.0 ], [ 329140.0, 7153530.0 ], [ 329140.0, 7153560.0 ], [ 329130.0, 7153560.0 ], [ 329130.0, 7153570.0 ], [ 329100.0, 7153570.0 ], [ 329100.0, 7153580.0 ], [ 329090.0, 7153580.0 ], [ 329090.0, 7153630.0 ], [ 329080.0, 7153630.0 ], [ 329080.0, 7153640.0 ], [ 329070.0, 7153640.0 ], [ 329070.0, 7153690.0 ], [ 329080.0, 7153690.0 ], [ 329080.0, 7153700.0 ], [ 329100.0, 7153700.0 ], [ 329100.0, 7153710.0 ], [ 329110.0, 7153710.0 ], [ 329110.0, 7153720.0 ], [ 329120.0, 7153720.0 ], [ 329120.0, 7153730.0 ] ], [ [ 329090.0, 7153500.0 ], [ 329100.0, 7153500.0 ], [ 329100.0, 7153470.0 ], [ 329090.0, 7153470.0 ], [ 329090.0, 7153450.0 ], [ 329080.0, 7153450.0 ], [ 329080.0, 7153440.0 ], [ 329070.0, 7153440.0 ], [ 329070.0, 7153450.0 ], [ 329060.0, 7153450.0 ], [ 329060.0, 7153470.0 ], [ 329070.0, 7153470.0 ], [ 329070.0, 7153480.0 ], [ 329080.0, 7153480.0 ], [ 329080.0, 7153490.0 ], [ 329090.0, 7153490.0 ], [ 329090.0, 7153500.0 ] ], [ [ 329130.0, 7153470.0 ], [ 329140.0, 7153470.0 ], [ 329140.0, 7153460.0 ], [ 329150.0, 7153460.0 ], [ 329150.0, 7153450.0 ], [ 329140.0, 7153450.0 ], [ 329140.0, 7153440.0 ], [ 329120.0, 7153440.0 ], [ 329120.0, 7153460.0 ], [ 329130.0, 7153460.0 ], [ 329130.0, 7153470.0 ] ] ] } },
{ "type": "Feature", "properties": { "fid": 36, "zonas": 3 }, "geometry": { "type": "Polygon", "coordinates": [ [ [ 328900.0, 7153240.0 ], [ 328900.0, 7153230.0 ], [ 328910.0, 7153230.0 ], [ 328910.0, 7153240.0 ], [ 328900.0, 7153240.0 ] ] ] } },
{ "type": "Feature", "properties": { "fid": 37, "zonas": 3 }, "geometry": { "type": "Polygon", "coordinates": [ [ [ 328910.0, 7153070.0 ], [ 328910.0, 7153060.0 ], [ 328920.0, 7153060.0 ], [ 328920.0, 7153070.0 ], [ 328910.0, 7153070.0 ] ] ] } },
{ "type": "Feature", "properties": { "fid": 38, "zonas": 1 }, "geometry": { "type": "Polygon", "coordinates": [ [ [ 328920.0, 7153070.0 ], [ 328920.0, 7153060.0 ], [ 328930.0, 7153060.0 ], [ 328930.0, 7153070.0 ], [ 328920.0, 7153070.0 ] ] ] } },
{ "type": "Feature", "properties": { "fid": 39, "zonas": 2 }, "geometry": { "type": "Polygon", "coordinates": [ [ [ 329160.0, 7153080.0 ], [ 329160.0, 7153050.0 ], [ 329170.0, 7153050.0 ], [ 329170.0, 7153080.0 ], [ 329160.0, 7153080.0 ] ] ] } },
{ "type": "Feature", "properties": { "fid": 40, "zonas": 3 }, "geometry": { "type": "Polygon", "coordinates": [ [ [ 328920.0, 7153060.0 ], [ 328920.0, 7153050.0 ], [ 328930.0, 7153050.0 ], [ 328930.0, 7153060.0 ], [ 328920.0, 7153060.0 ] ] ] } },
{ "type": "Feature", "properties": { "fid": 41, "zonas": 3 }, "geometry": { "type": "Polygon", "coordinates": [ [ [ 329000.0, 7153160.0 ], [ 329000.0, 7153100.0 ], [ 329010.0, 7153100.0 ], [ 329010.0, 7153090.0 ], [ 329030.0, 7153090.0 ], [ 329030.0, 7153080.0 ], [ 329040.0, 7153080.0 ], [ 329040.0, 7153050.0 ], [ 329050.0, 7153050.0 ], [ 329050.0, 7153040.0 ], [ 329060.0, 7153040.0 ], [ 329060.0, 7153030.0 ], [ 329070.0, 7153030.0 ], [ 329070.0, 7153060.0 ], [ 329060.0, 7153060.0 ], [ 329060.0, 7153110.0 ], [ 329050.0, 7153110.0 ], [ 329050.0, 7153120.0 ], [ 329030.0, 7153120.0 ], [ 329030.0, 7153160.0 ], [ 329000.0, 7153160.0 ] ] ] } },
{ "type": "Feature", "properties": { "fid": 42, "zonas": 3 }, "geometry": { "type": "Polygon", "coordinates": [ [ [ 329070.0, 7153030.0 ], [ 329070.0, 7153020.0 ], [ 329080.0, 7153020.0 ], [ 329080.0, 7153030.0 ], [ 329070.0, 7153030.0 ] ] ] } },
{ "type": "Feature", "properties": { "fid": 43, "zonas": 1 }, "geometry": { "type": "Polygon", "coordinates": [ [ [ 328910.0, 7153390.0 ], [ 328910.0, 7153340.0 ], [ 328900.0, 7153340.0 ], [ 328900.0, 7153280.0 ], [ 328890.0, 7153280.0 ], [ 328890.0, 7153230.0 ], [ 328880.0, 7153230.0 ], [ 328880.0, 7153170.0 ], [ 328870.0, 7153170.0 ], [ 328870.0, 7153090.0 ], [ 328880.0, 7153090.0 ], [ 328880.0, 7153080.0 ], [ 328890.0, 7153080.0 ], [ 328890.0, 7153060.0 ], [ 328900.0, 7153060.0 ], [ 328900.0, 7153050.0 ], [ 328910.0, 7153050.0 ], [ 328910.0, 7153040.0 ], [ 328920.0, 7153040.0 ], [ 328920.0, 7153030.0 ], [ 328930.0, 7153030.0 ], [ 328930.0, 7153010.0 ], [ 328950.0, 7153010.0 ], [ 328950.0, 7153020.0 ], [ 328960.0, 7153020.0 ], [ 328960.0, 7153030.0 ], [ 328950.0, 7153030.0 ], [ 328950.0, 7153040.0 ], [ 328940.0, 7153040.0 ], [ 328940.0, 7153060.0 ], [ 328930.0, 7153060.0 ], [ 328930.0, 7153050.0 ], [ 328920.0, 7153050.0 ], [ 328920.0, 7153060.0 ], [ 328910.0, 7153060.0 ], [ 328910.0, 7153070.0 ], [ 328920.0, 7153070.0 ], [ 328920.0, 7153080.0 ], [ 328910.0, 7153080.0 ], [ 328910.0, 7153090.0 ], [ 328900.0, 7153090.0 ], [ 328900.0, 7153100.0 ], [ 328890.0, 7153100.0 ], [ 328890.0, 7153110.0 ], [ 328880.0, 7153110.0 ], [ 328880.0, 7153120.0 ], [ 328890.0, 7153120.0 ], [ 328890.0, 7153130.0 ], [ 328880.0, 7153130.0 ], [ 328880.0, 7153140.0 ], [ 328890.0, 7153140.0 ], [ 328890.0, 7153200.0 ], [ 328900.0, 7153200.0 ], [ 328900.0, 7153240.0 ], [ 328910.0, 7153240.0 ], [ 328910.0, 7153300.0 ], [ 328920.0, 7153300.0 ], [ 328920.0, 7153390.0 ], [ 328910.0, 7153390.0 ] ] ] } },
{ "type": "Feature", "properties": { "fid": 44, "zonas": 3 }, "geometry": { "type": "Polygon", "coordinates": [ [ [ 328880.0, 7153140.0 ], [ 328880.0, 7153130.0 ], [ 328890.0, 7153130.0 ], [ 328890.0, 7153120.0 ], [ 328880.0, 7153120.0 ], [ 328880.0, 7153110.0 ], [ 328890.0, 7153110.0 ], [ 328890.0, 7153100.0 ], [ 328900.0, 7153100.0 ], [ 328900.0, 7153090.0 ], [ 328910.0, 7153090.0 ], [ 328910.0, 7153080.0 ], [ 328920.0, 7153080.0 ], [ 328920.0, 7153070.0 ], [ 328930.0, 7153070.0 ], [ 328930.0, 7153060.0 ], [ 328940.0, 7153060.0 ], [ 328940.0, 7153040.0 ], [ 328950.0, 7153040.0 ], [ 328950.0, 7153030.0 ], [ 328960.0, 7153030.0 ], [ 328960.0, 7153020.0 ], [ 328950.0, 7153020.0 ], [ 328950.0, 7153010.0 ], [ 328940.0, 7153010.0 ], [ 328940.0, 7153000.0 ], [ 328950.0, 7153000.0 ], [ 328950.0, 7152990.0 ], [ 328960.0, 7152990.0 ], [ 328960.0, 7152980.0 ], [ 328970.0, 7152980.0 ], [ 328970.0, 7152970.0 ], [ 328990.0, 7152970.0 ], [ 328990.0, 7152980.0 ], [ 329000.0, 7152980.0 ], [ 329000.0, 7152990.0 ], [ 329010.0, 7152990.0 ], [ 329010.0, 7153050.0 ], [ 329000.0, 7153050.0 ], [ 329000.0, 7153060.0 ], [ 328990.0, 7153060.0 ], [ 328990.0, 7153050.0 ], [ 328980.0, 7153050.0 ], [ 328980.0, 7153030.0 ], [ 328970.0, 7153030.0 ], [ 328970.0, 7153070.0 ], [ 328960.0, 7153070.0 ], [ 328960.0, 7153080.0 ], [ 328930.0, 7153080.0 ], [ 328930.0, 7153120.0 ], [ 328910.0, 7153120.0 ], [ 328910.0, 7153130.0 ], [ 328900.0, 7153130.0 ], [ 328900.0, 7153140.0 ], [ 328880.0, 7153140.0 ] ] ] } },
{ "type": "Feature", "properties": { "fid": 45, "zonas": 1 }, "geometry": { "type": "Polygon", "coordinates": [ [ [ 328960.0, 7152980.0 ], [ 328960.0, 7152970.0 ], [ 328970.0, 7152970.0 ], [ 328970.0, 7152980.0 ], [ 328960.0, 7152980.0 ] ] ] } },
{ "type": "Feature", "properties": { "fid": 46, "zonas": 1 }, "geometry": { "type": "Polygon", "coordinates": [ [ [ 328990.0, 7152980.0 ], [ 328990.0, 7152970.0 ], [ 329000.0, 7152970.0 ], [ 329000.0, 7152980.0 ], [ 328990.0, 7152980.0 ] ] ] } },
{ "type": "Feature", "properties": { "fid": 47, "zonas": 1 }, "geometry": { "type": "Polygon", "coordinates": [ [ [ 328970.0, 7152970.0 ], [ 328970.0, 7152960.0 ], [ 328990.0, 7152960.0 ], [ 328990.0, 7152970.0 ], [ 328970.0, 7152970.0 ] ] ] } },
{ "type": "Feature", "properties": { "fid": 48, "zonas": 3 }, "geometry": { "type": "Polygon", "coordinates": [ [ [ 329020.0, 7153010.0 ], [ 329020.0, 7152970.0 ], [ 329010.0, 7152970.0 ], [ 329010.0, 7152960.0 ], [ 329000.0, 7152960.0 ], [ 329000.0, 7152970.0 ], [ 328990.0, 7152970.0 ], [ 328990.0, 7152960.0 ], [ 328980.0, 7152960.0 ], [ 328980.0, 7152950.0 ], [ 328990.0, 7152950.0 ], [ 328990.0, 7152940.0 ], [ 329000.0, 7152940.0 ], [ 329000.0, 7152930.0 ], [ 329010.0, 7152930.0 ], [ 329010.0, 7152940.0 ], [ 329020.0, 7152940.0 ], [ 329020.0, 7152930.0 ], [ 329030.0, 7152930.0 ], [ 329030.0, 7152940.0 ], [ 329040.0, 7152940.0 ], [ 329040.0, 7153000.0 ], [ 329030.0, 7153000.0 ], [ 329030.0, 7153010.0 ], [ 329020.0, 7153010.0 ] ] ] } },
{ "type": "Feature", "properties": { "fid": 49, "zonas": 3 }, "geometry": { "type": "Polygon", "coordinates": [ [ [ 329040.0, 7152920.0 ], [ 329040.0, 7152900.0 ], [ 329050.0, 7152900.0 ], [ 329050.0, 7152890.0 ], [ 329060.0, 7152890.0 ], [ 329060.0, 7152880.0 ], [ 329070.0, 7152880.0 ], [ 329070.0, 7152910.0 ], [ 329060.0, 7152910.0 ], [ 329060.0, 7152920.0 ], [ 329040.0, 7152920.0 ] ] ] } },
{ "type": "Feature", "properties": { "fid": 50, "zonas": 2 }, "geometry": { "type": "Polygon", "coordinates": [ [ [ 328960.0, 7153400.0 ], [ 328960.0, 7153380.0 ], [ 328950.0, 7153380.0 ], [ 328950.0, 7153360.0 ], [ 328940.0, 7153360.0 ], [ 328940.0, 7153350.0 ], [ 328930.0, 7153350.0 ], [ 328930.0, 7153340.0 ], [ 328920.0, 7153340.0 ], [ 328920.0, 7153290.0 ], [ 328910.0, 7153290.0 ], [ 328910.0, 7153230.0 ], [ 328900.0, 7153230.0 ], [ 328900.0, 7153200.0 ], [ 328890.0, 7153200.0 ], [ 328890.0, 7153140.0 ], [ 328900.0, 7153140.0 ], [ 328900.0, 7153130.0 ], [ 328910.0, 7153130.0 ], [ 328910.0, 7153120.0 ], [ 328930.0, 7153120.0 ], [ 328930.0, 7153080.0 ], [ 328960.0, 7153080.0 ], [ 328960.0, 7153070.0 ], [ 328970.0, 7153070.0 ], [ 328970.0, 7153030.0 ], [ 328980.0, 7153030.0 ], [ 328980.0, 7153050.0 ], [ 328990.0, 7153050.0 ], [ 328990.0, 7153060.0 ], [ 329000.0, 7153060.0 ], [ 329000.0, 7153050.0 ], [ 329010.0, 7153050.0 ], [ 329010.0, 7152990.0 ], [ 329000.0, 7152990.0 ], [ 329000.0, 7152960.0 ], [ 329010.0, 7152960.0 ], [ 329010.0, 7152970.0 ], [ 329020.0, 7152970.0 ], [ 329020.0, 7153010.0 ], [ 329030.0, 7153010.0 ], [ 329030.0, 7153000.0 ], [ 329040.0, 7153000.0 ], [ 329040.0, 7152940.0 ], [ 329030.0, 7152940.0 ], [ 329030.0, 7152930.0 ], [ 329040.0, 7152930.0 ], [ 329040.0, 7152920.0 ], [ 329060.0, 7152920.0 ], [ 329060.0, 7152910.0 ], [ 329070.0, 7152910.0 ], [ 329070.0, 7152870.0 ], [ 329140.0, 7152870.0 ], [ 329140.0, 7152890.0 ], [ 329150.0, 7152890.0 ], [ 329150.0, 7152960.0 ], [ 329160.0, 7152960.0 ], [ 329160.0, 7152990.0 ], [ 329170.0, 7152990.0 ], [ 329170.0, 7153020.0 ], [ 329140.0, 7153020.0 ], [ 329140.0, 7153030.0 ], [ 329150.0, 7153030.0 ], [ 329150.0, 7153040.0 ], [ 329140.0, 7153040.0 ], [ 329140.0, 7153060.0 ], [ 329150.0, 7153060.0 ], [ 329150.0, 7153110.0 ], [ 329140.0, 7153110.0 ], [ 329140.0, 7153210.0 ], [ 329150.0, 7153210.0 ], [ 329150.0, 7153220.0 ], [ 329160.0, 7153220.0 ], [ 329160.0, 7153260.0 ], [ 329150.0, 7153260.0 ], [ 329150.0, 7153250.0 ], [ 329140.0, 7153250.0 ], [ 329140.0, 7153220.0 ], [ 329130.0, 7153220.0 ], [ 329130.0, 7153210.0 ], [ 329120.0, 7153210.0 ], [ 329120.0, 7153230.0 ], [ 329110.0, 7153230.0 ], [ 329110.0, 7153250.0 ], [ 329080.0, 7153250.0 ], [ 329080.0, 7153280.0 ], [ 329050.0, 7153280.0 ], [ 329050.0, 7153270.0 ], [ 329040.0, 7153270.0 ], [ 329040.0, 7153260.0 ], [ 329030.0, 7153260.0 ], [ 329030.0, 7153280.0 ], [ 329010.0, 7153280.0 ], [ 329010.0, 7153290.0 ], [ 329000.0, 7153290.0 ], [ 329000.0, 7153300.0 ], [ 328990.0, 7153300.0 ], [ 328990.0, 7153320.0 ], [ 329000.0, 7153320.0 ], [ 329000.0, 7153360.0 ], [ 329010.0, 7153360.0 ], [ 329010.0, 7153370.0 ], [ 329000.0, 7153370.0 ], [ 329000.0, 7153400.0 ], [ 328960.0, 7153400.0 ] ], [ [ 329000.0, 7153160.0 ], [ 329030.0, 7153160.0 ], [ 329030.0, 7153120.0 ], [ 329050.0, 7153120.0 ], [ 329050.0, 7153110.0 ], [ 329060.0, 7153110.0 ], [ 329060.0, 7153060.0 ], [ 329070.0, 7153060.0 ], [ 329070.0, 7153030.0 ], [ 329060.0, 7153030.0 ], [ 329060.0, 7153040.0 ], [ 329050.0, 7153040.0 ], [ 329050.0, 7153050.0 ], [ 329040.0, 7153050.0 ], [ 329040.0, 7153080.0 ], [ 329030.0, 7153080.0 ], [ 329030.0, 7153090.0 ], [ 329010.0, 7153090.0 ], [ 329010.0, 7153100.0 ], [ 329000.0, 7153100.0 ], [ 329000.0, 7153160.0 ] ], [ [ 329070.0, 7153030.0 ], [ 329080.0, 7153030.0 ], [ 329080.0, 7153020.0 ], [ 329070.0, 7153020.0 ], [ 329070.0, 7153030.0 ] ] ] } },
{ "type": "Feature", "properties": { "fid": 51, "zonas": 1 }, "geometry": { "type": "Polygon", "coordinates": [ [ [ 329010.0, 7152940.0 ], [ 329010.0, 7152930.0 ], [ 329000.0, 7152930.0 ], [ 329000.0, 7152920.0 ], [ 329010.0, 7152920.0 ], [ 329010.0, 7152910.0 ], [ 329020.0, 7152910.0 ], [ 329020.0, 7152900.0 ], [ 329030.0, 7152900.0 ], [ 329030.0, 7152880.0 ], [ 329040.0, 7152880.0 ], [ 329040.0, 7152870.0 ], [ 329050.0, 7152870.0 ], [ 329050.0, 7152860.0 ], [ 329060.0, 7152860.0 ], [ 329060.0, 7152850.0 ], [ 329070.0, 7152850.0 ], [ 329070.0, 7152880.0 ], [ 329060.0, 7152880.0 ], [ 329060.0, 7152890.0 ], [ 329050.0, 7152890.0 ], [ 329050.0, 7152900.0 ], [ 329040.0, 7152900.0 ], [ 329040.0, 7152930.0 ], [ 329020.0, 7152930.0 ], [ 329020.0, 7152940.0 ], [ 329010.0, 7152940.0 ] ] ] } },
{ "type": "Feature", "properties": { "fid": 52, "zonas": 1 }, "geometry": { "type": "Polygon", "coordinates": [ [ [ 329070.0, 7152840.0 ], [ 329070.0, 7152830.0 ], [ 329080.0, 7152830.0 ], [ 329080.0, 7152840.0 ], [ 329070.0, 7152840.0 ] ] ] } },
{ "type": "Feature", "properties": { "fid": 53, "zonas": 1 }, "geometry": { "type": "Polygon", "coordinates": [ [ [ 329440.0, 7154300.0 ], [ 329440.0, 7154290.0 ], [ 329450.0, 7154290.0 ], [ 329450.0, 7154260.0 ], [ 329460.0, 7154260.0 ], [ 329460.0, 7154230.0 ], [ 329450.0, 7154230.0 ], [ 329450.0, 7154200.0 ], [ 329440.0, 7154200.0 ], [ 329440.0, 7154150.0 ], [ 329430.0, 7154150.0 ], [ 329430.0, 7154100.0 ], [ 329420.0, 7154100.0 ], [ 329420.0, 7154040.0 ], [ 329410.0, 7154040.0 ], [ 329410.0, 7153950.0 ], [ 329400.0, 7153950.0 ], [ 329400.0, 7153910.0 ], [ 329390.0, 7153910.0 ], [ 329390.0, 7153870.0 ], [ 329380.0, 7153870.0 ], [ 329380.0, 7153820.0 ], [ 329370.0, 7153820.0 ], [ 329370.0, 7153770.0 ], [ 329360.0, 7153770.0 ], [ 329360.0, 7153720.0 ], [ 329350.0, 7153720.0 ], [ 329350.0, 7153620.0 ], [ 329340.0, 7153620.0 ], [ 329340.0, 7153590.0 ], [ 329330.0, 7153590.0 ], [ 329330.0, 7153530.0 ], [ 329320.0, 7153530.0 ], [ 329320.0, 7153480.0 ], [ 329310.0, 7153480.0 ], [ 329310.0, 7153420.0 ], [ 329300.0, 7153420.0 ], [ 329300.0, 7153360.0 ], [ 329290.0, 7153360.0 ], [ 329290.0, 7153310.0 ], [ 329280.0, 7153310.0 ], [ 329280.0, 7153270.0 ], [ 329270.0, 7153270.0 ], [ 329270.0, 7153210.0 ], [ 329260.0, 7153210.0 ], [ 329260.0, 7153150.0 ], [ 329250.0, 7153150.0 ], [ 329250.0, 7153080.0 ], [ 329240.0, 7153080.0 ], [ 329240.0, 7153050.0 ], [ 329230.0, 7153050.0 ], [ 329230.0, 7152990.0 ], [ 329220.0, 7152990.0 ], [ 329220.0, 7152930.0 ], [ 329210.0, 7152930.0 ], [ 329210.0, 7152910.0 ], [ 329200.0, 7152910.0 ], [ 329200.0, 7152810.0 ], [ 329190.0, 7152810.0 ], [ 329190.0, 7152780.0 ], [ 329180.0, 7152780.0 ], [ 329180.0, 7152730.0 ], [ 329200.0, 7152730.0 ], [ 329200.0, 7152790.0 ], [ 329210.0, 7152790.0 ], [ 329210.0, 7152840.0 ], [ 329220.0, 7152840.0 ], [ 329220.0, 7152900.0 ], [ 329230.0, 7152900.0 ], [ 329230.0, 7152950.0 ], [ 329240.0, 7152950.0 ], [ 329240.0, 7153000.0 ], [ 329250.0, 7153000.0 ], [ 329250.0, 7153060.0 ], [ 329260.0, 7153060.0 ], [ 329260.0, 7153110.0 ], [ 329270.0, 7153110.0 ], [ 329270.0, 7153170.0 ], [ 329280.0, 7153170.0 ], [ 329280.0, 7153220.0 ], [ 329290.0, 7153220.0 ], [ 329290.0, 7153270.0 ], [ 329300.0, 7153270.0 ], [ 329300.0, 7153330.0 ], [ 329310.0, 7153330.0 ], [ 329310.0, 7153380.0 ], [ 329320.0, 7153380.0 ], [ 329320.0, 7153430.0 ], [ 329330.0, 7153430.0 ], [ 329330.0, 7153490.0 ], [ 329340.0, 7153490.0 ], [ 329340.0, 7153540.0 ], [ 329350.0, 7153540.0 ], [ 329350.0, 7153600.0 ], [ 329360.0, 7153600.0 ], [ 329360.0, 7153650.0 ], [ 329370.0, 7153650.0 ], [ 329370.0, 7153700.0 ], [ 329380.0, 7153700.0 ], [ 329380.0, 7153760.0 ], [ 329390.0, 7153760.0 ], [ 329390.0, 7153810.0 ], [ 329400.0, 7153810.0 ], [ 329400.0, 7153870.0 ], [ 329410.0, 7153870.0 ], [ 329410.0, 7153920.0 ], [ 329420.0, 7153920.0 ], [ 329420.0, 7153970.0 ], [ 329430.0, 7153970.0 ], [ 329430.0, 7154030.0 ], [ 329440.0, 7154030.0 ], [ 329440.0, 7154080.0 ], [ 329450.0, 7154080.0 ], [ 329450.0, 7154140.0 ], [ 329460.0, 7154140.0 ], [ 329460.0, 7154190.0 ], [ 329470.0, 7154190.0 ], [ 329470.0, 7154240.0 ], [ 329480.0, 7154240.0 ], [ 329480.0, 7154300.0 ], [ 329440.0, 7154300.0 ] ] ] } },
{ "type": "Feature", "properties": { "fid": 54, "zonas": 3 }, "geometry": { "type": "Polygon", "coordinates": [ [ [ 329340.0, 7153670.0 ], [ 329340.0, 7153650.0 ], [ 329330.0, 7153650.0 ], [ 329330.0, 7153640.0 ], [ 329320.0, 7153640.0 ], [ 329320.0, 7153630.0 ], [ 329310.0, 7153630.0 ], [ 329310.0, 7153600.0 ], [ 329300.0, 7153600.0 ], [ 329300.0, 7153570.0 ], [ 329290.0, 7153570.0 ], [ 329290.0, 7153550.0 ], [ 329280.0, 7153550.0 ], [ 329280.0, 7153510.0 ], [ 329270.0, 7153510.0 ], [ 329270.0, 7153480.0 ], [ 329260.0, 7153480.0 ], [ 329260.0, 7153470.0 ], [ 329200.0, 7153470.0 ], [ 329200.0, 7153520.0 ], [ 329190.0, 7153520.0 ], [ 329190.0, 7153530.0 ], [ 329180.0, 7153530.0 ], [ 329180.0, 7153510.0 ], [ 329170.0, 7153510.0 ], [ 329170.0, 7153460.0 ], [ 329160.0, 7153460.0 ], [ 329160.0, 7153430.0 ], [ 329150.0, 7153430.0 ], [ 329150.0, 7153380.0 ], [ 329140.0, 7153380.0 ], [ 329140.0, 7153320.0 ], [ 329130.0, 7153320.0 ], [ 329130.0, 7153310.0 ], [ 329120.0, 7153310.0 ], [ 329120.0, 7153270.0 ], [ 329100.0, 7153270.0 ], [ 329100.0, 7153290.0 ], [ 329110.0, 7153290.0 ], [ 329110.0, 7153310.0 ], [ 329100.0, 7153310.0 ], [ 329100.0, 7153330.0 ], [ 329090.0, 7153330.0 ], [ 329090.0, 7153320.0 ], [ 329080.0, 7153320.0 ], [ 329080.0, 7153310.0 ], [ 329070.0, 7153310.0 ], [ 329070.0, 7153360.0 ], [ 329080.0, 7153360.0 ], [ 329080.0, 7153420.0 ], [ 329070.0, 7153420.0 ], [ 329070.0, 7153440.0 ], [ 329060.0, 7153440.0 ], [ 329060.0, 7153410.0 ], [ 329040.0, 7153410.0 ], [ 329040.0, 7153400.0 ], [ 329030.0, 7153400.0 ], [ 329030.0, 7153410.0 ], [ 329020.0, 7153410.0 ], [ 329020.0, 7153420.0 ], [ 329010.0, 7153420.0 ], [ 329010.0, 7153430.0 ], [ 329020.0, 7153430.0 ], [ 329020.0, 7153440.0 ], [ 329010.0, 7153440.0 ], [ 329010.0, 7153450.0 ], [ 329000.0, 7153450.0 ], [ 329000.0, 7153470.0 ], [ 328980.0, 7153470.0 ], [ 328980.0, 7153460.0 ], [ 328970.0, 7153460.0 ], [ 328970.0, 7153450.0 ], [ 328960.0, 7153450.0 ], [ 328960.0, 7153430.0 ], [ 328950.0, 7153430.0 ], [ 328950.0, 7153470.0 ], [ 328960.0, 7153470.0 ], [ 328960.0, 7153520.0 ], [ 328950.0, 7153520.0 ], [ 328950.0, 7153490.0 ], [ 328940.0, 7153490.0 ], [ 328940.0, 7153400.0 ], [ 328930.0, 7153400.0 ], [ 328930.0, 7153390.0 ], [ 328920.0, 7153390.0 ], [ 328920.0, 7153340.0 ], [ 328930.0, 7153340.0 ], [ 328930.0, 7153350.0 ], [ 328940.0, 7153350.0 ], [ 328940.0, 7153360.0 ], [ 328950.0, 7153360.0 ], [ 328950.0, 7153380.0 ], [ 328960.0, 7153380.0 ], [ 328960.0, 7153400.0 ], [ 329000.0, 7153400.0 ], [ 329000.0, 7153370.0 ], [ 329010.0, 7153370.0 ], [ 329010.0, 7153360.0 ], [ 329000.0, 7153360.0 ], [ 329000.0, 7153320.0 ], [ 328990.0, 7153320.0 ], [ 328990.0, 7153300.0 ], [ 329000.0, 7153300.0 ], [ 329000.0, 7153290.0 ], [ 329010.0, 7153290.0 ], [ 329010.0, 7153280.0 ], [ 329030.0, 7153280.0 ], [ 329030.0, 7153260.0 ], [ 329040.0, 7153260.0 ], [ 329040.0, 7153270.0 ], [ 329050.0, 7153270.0 ], [ 329050.0, 7153280.0 ], [ 329080.0, 7153280.0 ], [ 329080.0, 7153250.0 ], [ 329110.0, 7153250.0 ], [ 329110.0, 7153230.0 ], [ 329120.0, 7153230.0 ], [ 329120.0, 7153210.0 ], [ 329130.0, 7153210.0 ], [ 329130.0, 7153220.0 ], [ 329140.0, 7153220.0 ], [ 329140.0, 7153250.0 ], [ 329150.0, 7153250.0 ], [ 329150.0, 7153260.0 ], [ 329160.0, 7153260.0 ], [ 329160.0, 7153220.0 ], [ 329150.0, 7153220.0 ], [ 329150.0, 7153210.0 ], [ 329140.0, 7153210.0 ], [ 329140.0, 7153110.0 ], [ 329150.0, 7153110.0 ], [ 329150.0, 7153060.0 ], [ 329140.0, 7153060.0 ], [ 329140.0, 7153040.0 ], [ 329150.0, 7153040.0 ], [ 329150.0, 7153030.0 ], [ 329140.0, 7153030.0 ], [ 329140.0, 7153020.0 ], [ 329170.0, 7153020.0 ], [ 329170.0, 7152990.0 ], [ 329160.0, 7152990.0 ], [ 329160.0, 7152960.0 ], [ 329150.0, 7152960.0 ], [ 329150.0, 7152890.0 ], [ 329140.0, 7152890.0 ], [ 329140.0, 7152870.0 ], [ 329070.0, 7152870.0 ], [ 329070.0, 7152840.0 ], [ 329080.0, 7152840.0 ], [ 329080.0, 7152820.0 ], [ 329090.0, 7152820.0 ], [ 329090.0, 7152810.0 ], [ 329100.0, 7152810.0 ], [ 329100.0, 7152790.0 ], [ 329110.0, 7152790.0 ], [ 329110.0, 7152780.0 ], [ 329120.0, 7152780.0 ], [ 329120.0, 7152770.0 ], [ 329130.0, 7152770.0 ], [ 329130.0, 7152760.0 ], [ 329140.0, 7152760.0 ], [ 329140.0, 7152740.0 ], [ 329150.0, 7152740.0 ], [ 329150.0, 7152730.0 ], [ 329170.0, 7152730.0 ], [ 329170.0, 7152720.0 ], [ 329190.0, 7152720.0 ], [ 329190.0, 7152730.0 ], [ 329180.0, 7152730.0 ], [ 329180.0, 7152780.0 ], [ 329190.0, 7152780.0 ], [ 329190.0, 7152810.0 ], [ 329200.0, 7152810.0 ], [ 329200.0, 7152910.0 ], [ 329210.0, 7152910.0 ], [ 329210.0, 7152930.0 ], [ 329220.0, 7152930.0 ], [ 329220.0, 7152990.0 ], [ 329230.0, 7152990.0 ], [ 329230.0, 7153050.0 ], [ 329240.0, 7153050.0 ], [ 329240.0, 7153080.0 ], [ 329250.0, 7153080.0 ], [ 329250.0, 7153150.0 ], [ 329260.0, 7153150.0 ], [ 329260.0, 7153210.0 ], [ 329270.0, 7153210.0 ], [ 329270.0, 7153270.0 ], [ 329280.0, 7153270.0 ], [ 329280.0, 7153310.0 ], [ 329290.0, 7153310.0 ], [ 329290.0, 7153360.0 ], [ 329300.0, 7153360.0 ], [ 329300.0, 7153420.0 ], [ 329310.0, 7153420.0 ], [ 329310.0, 7153480.0 ], [ 329320.0, 7153480.0 ], [ 329320.0, 7153530.0 ], [ 329330.0, 7153530.0 ], [ 329330.0, 7153590.0 ], [ 329340.0, 7153590.0 ], [ 329340.0, 7153620.0 ], [ 329350.0, 7153620.0 ], [ 329350.0, 7153670.0 ], [ 329340.0, 7153670.0 ] ], [ [ 328950.0, 7153420.0 ], [ 328960.0, 7153420.0 ], [ 328960.0, 7153400.0 ], [ 328950.0, 7153400.0 ], [ 328950.0, 7153420.0 ] ], [ [ 329170.0, 7153360.0 ], [ 329180.0, 7153360.0 ], [ 329180.0, 7153320.0 ], [ 329170.0, 7153320.0 ], [ 329170.0, 7153300.0 ], [ 329160.0, 7153300.0 ], [ 329160.0, 7153290.0 ], [ 329150.0, 7153290.0 ], [ 329150.0, 7153340.0 ], [ 329160.0, 7153340.0 ], [ 329160.0, 7153350.0 ], [ 329170.0, 7153350.0 ], [ 329170.0, 7153360.0 ] ], [ [ 329160.0, 7153080.0 ], [ 329170.0, 7153080.0 ], [ 329170.0, 7153050.0 ], [ 329160.0, 7153050.0 ], [ 329160.0, 7153080.0 ] ] ] } },
{ "type": "Feature", "properties": { "fid": 55, "zonas": 2 }, "geometry": { "type": "Polygon", "coordinates": [ [ [ 329160.0, 7152730.0 ], [ 329160.0, 7152720.0 ], [ 329170.0, 7152720.0 ], [ 329170.0, 7152730.0 ], [ 329160.0, 7152730.0 ] ] ] } },
{ "type": "Feature", "properties": { "fid": 56, "zonas": 2 }, "geometry": { "type": "Polygon", "coordinates": [ [ [ 329170.0, 7152720.0 ], [ 329170.0, 7152700.0 ], [ 329180.0, 7152700.0 ], [ 329180.0, 7152690.0 ], [ 329190.0, 7152690.0 ], [ 329190.0, 7152720.0 ], [ 329170.0, 7152720.0 ] ] ] } }
]
}
